$$SOE
2460742.500000000, A.D. 2025-Mar-08 00:00:00.0000, 2.061433121765788E+09, 3.681588563695136E+09, 6.759864462078357E+08,
2460749.500000000, A.D. 2025-Mar-15 00:00:00.0000, 2.058572699251981E+09, 3.683179694617389E+09, 6.748582691231673E+08,
2460756.500000000, A.D. 2025-Mar-22 00:00:00.0000, 2.055710997914029E+09, 3.684768446230509E+09, 6.737296706278758E+08,
2460763.500000000, A.D. 2025-Mar-29 00:00:00.0000, 2.052848020584651E+09, 3.686354821700385E+09, 6.726006514878023E+08,
2460770.500000000, A.D. 2025-Apr-05 00:00:00.0000, 2.049983768899745E+09, 3.687938823556282E+09, 6.714712125056024E+08,
2460777.500000000, A.D. 2025-Apr-12 00:00:00.0000, 2.047118243900512E+09, 3.689520453730359E+09, 6.703413544758937E+08,
2460784.500000000, A.D. 2025-Apr-19 00:00:00.0000, 2.044251446217004E+09, 3.691099713704020E+09, 6.692110781876845E+08,
2460791.500000000, A.D. 2025-Apr-26 00:00:00.0000, 2.041383376104763E+09, 3.692676604558443E+09, 6.680803844323230E+08,
2460798.500000000, A.D. 2025-May-03 00:00:00.0000, 2.038514033448214E+09, 3.694251126948808E+09, 6.669492740078750E+08,
2460805.500000000, A.D. 2025-May-10 00:00:00.0000, 2.035643417759414E+09, 3.695823281011269E+09, 6.658177477178454E+08,
2460812.500000000, A.D. 2025-May-17 00:00:00.0000, 2.032771528208889E+09, 3.697393066161937E+09, 6.646858063573763E+08,
2460819.500000000, A.D. 2025-May-24 00:00:00.0000, 2.029898363862461E+09, 3.698960480733709E+09, 6.635534506664348E+08,
2460826.500000000, A.D. 2025-May-31 00:00:00.0000, 2.027023924541858E+09, 3.700525521762171E+09, 6.624206812370317E+08,
2460833.500000000, A.D. 2025-Jun-07 00:00:00.0000, 2.024148211908172E+09, 3.702088186125574E+09, 6.612874985096869E+08,
2460840.500000000, A.D. 2025-Jun-14 00:00:00.0000, 2.021271228403579E+09, 3.703648472372248E+09, 6.601539030215156E+08,
2460847.500000000, A.D. 2025-Jun-21 00:00:00.0000, 2.018392975268134E+09, 3.705206379964272E+09, 6.590198955270240E+08,
2460854.500000000, A.D. 2025-Jun-28 00:00:00.0000, 2.015513452759785E+09, 3.706761907702252E+09, 6.578854768489399E+08,
2460861.500000000, A.D. 2025-Jul-05 00:00:00.0000, 2.012632661060936E+09, 3.708315053487833E+09, 6.567506477744651E+08,
2460868.500000000, A.D. 2025-Jul-12 00:00:00.0000, 2.009750600680524E+09, 3.709865814618770E+09, 6.556154090404325E+08,
2460875.500000000, A.D. 2025-Jul-19 00:00:00.0000, 2.006867272541188E+09, 3.711414188041625E+09, 6.544797613430550E+08,
2460882.500000000, A.D. 2025-Jul-26 00:00:00.0000, 2.003982677961480E+09, 3.712960170505672E+09, 6.533437053484757E+08,
2460889.500000000, A.D. 2025-Aug-02 00:00:00.0000, 2.001096818598470E+09, 3.714503758639822E+09, 6.522072416999960E+08,
2460896.500000000, A.D. 2025-Aug-09 00:00:00.0000, 1.998209696374197E+09, 3.716044948938167E+09, 6.510703710187826E+08,
2460903.500000000, A.D. 2025-Aug-16 00:00:00.0000, 1.995321313462885E+09, 3.717583737591178E+09, 6.499330938860040E+08,
2460910.500000000, A.D. 2025-Aug-23 00:00:00.0000, 1.992431672631564E+09, 3.719120120179317E+09, 6.487954107811143E+08,
2460917.500000000, A.D. 2025-Aug-30 00:00:00.0000, 1.989540778263029E+09, 3.720654091943361E+09, 6.476573220046921E+08,
2460924.500000000, A.D. 2025-Sep-06 00:00:00.0000, 1.986648636642996E+09, 3.722185649631869E+09, 6.465188277979138E+08,
2460931.500000000, A.D. 2025-Sep-13 00:00:00.0000, 1.983755253840723E+09, 3.723714792443110E+09, 6.453799286092393E+08,
2460938.500000000, A.D. 2025-Sep-20 00:00:00.0000, 1.980860634456320E+09, 3.725241520417136E+09, 6.442406250739551E+08,
2460945.500000000, A.D. 2025-Sep-27 00:00:00.0000, 1.977964782293273E+09, 3.726765833389789E+09, 6.431009178639894E+08,
2460952.500000000, A.D. 2025-Oct-04 00:00:00.0000, 1.975067700939530E+09, 3.728287731047976E+09, 6.419608076372104E+08,
2460959.500000000, A.D. 2025-Oct-11 00:00:00.0000, 1.972169393883457E+09, 3.729807213143460E+09, 6.408202950435212E+08,
2460966.500000000, A.D. 2025-Oct-18 00:00:00.0000, 1.969269864448365E+09, 3.731324279590983E+09, 6.396793807393458E+08,
2460973.500000000, A.D. 2025-Oct-25 00:00:00.0000, 1.966369115685104E+09, 3.732838930462052E+09, 6.385380653985808E+08,
2460980.500000000, A.D. 2025-Nov-01 00:00:00.0000, 1.963467150262156E+09, 3.734351165890290E+09, 6.373963497175508E+08,
2460987.500000000, A.D. 2025-Nov-08 00:00:00.0000, 1.960563970387720E+09, 3.735860985857395E+09, 6.362542344080822E+08,
2460994.500000000, A.D. 2025-Nov-15 00:00:00.0000, 1.957659577911613E+09, 3.737368389801603E+09, 6.351117201601532E+08,
2461001.500000000, A.D. 2025-Nov-22 00:00:00.0000, 1.954753975009601E+09, 3.738873376269241E+09, 6.339688075549483E+08,
2461008.500000000, A.D. 2025-Nov-29 00:00:00.0000, 1.951847165296922E+09, 3.740375943744764E+09, 6.328254970349214E+08,
2461015.500000000, A.D. 2025-Dec-06 00:00:00.0000, 1.948939153093494E+09, 3.741876092523698E+09, 6.316817891284342E+08,
2461022.500000000, A.D. 2025-Dec-13 00:00:00.0000, 1.946029941274450E+09, 3.743373824258497E+09, 6.305376846135924E+08,
2461029.500000000, A.D. 2025-Dec-20 00:00:00.0000, 1.943119531199136E+09, 3.744869140200825E+09, 6.293931843844011E+08,
2461036.500000000, A.D. 2025-Dec-27 00:00:00.0000, 1.940207923644773E+09, 3.746362040731998E+09, 6.282482893293986E+08,
2461043.500000000, A.D. 2026-Jan-03 00:00:00.0000, 1.937295119285536E+09, 3.747852525566586E+09, 6.271030003063147E+08,
2461050.500000000, A.D. 2026-Jan-10 00:00:00.0000, 1.934381118826824E+09, 3.749340593950939E+09, 6.259573181472123E+08,
2461057.500000000, A.D. 2026-Jan-17 00:00:00.0000, 1.931465923027293E+09, 3.750826244765904E+09, 6.248112436653743E+08,
2461064.500000000, A.D. 2026-Jan-24 00:00:00.0000, 1.928549532686574E+09, 3.752309476557271E+09, 6.236647776587369E+08,
2461071.500000000, A.D. 2026-Jan-31 00:00:00.0000, 1.925631948622140E+09, 3.753790287487476E+09, 6.225179209072099E+08,
2461078.500000000, A.D. 2026-Feb-07 00:00:00.0000, 1.922713171696845E+09, 3.755268675152134E+09, 6.213706741536756E+08,
2461085.500000000, A.D. 2026-Feb-14 00:00:00.0000, 1.919793203150178E+09, 3.756744636247003E+09, 6.202230380443029E+08,
2461092.500000000, A.D. 2026-Feb-21 00:00:00.0000, 1.916872045620814E+09, 3.758218166663185E+09, 6.190750130399101E+08,
2461099.500000000, A.D. 2026-Feb-28 00:00:00.0000, 1.913949703775594E+09, 3.759689263164676E+09, 6.179265994922082E+08,
2461106.500000000, A.D. 2026-Mar-07 00:00:00.0000, 1.911026182486421E+09, 3.761157924698619E+09, 6.167777979144845E+08,
2461113.500000000, A.D. 2026-Mar-14 00:00:00.0000, 1.908101485330744E+09, 3.762624151005701E+09, 6.156286090015607E+08,
2461120.500000000, A.D. 2026-Mar-21 00:00:00.0000, 1.905175615198547E+09, 3.764087941428737E+09, 6.144790334724574E+08,
2461127.500000000, A.D. 2026-Mar-28 00:00:00.0000, 1.902248574996419E+09, 3.765549294948129E+09, 6.133290720042434E+08,
2461134.500000000, A.D. 2026-Apr-04 00:00:00.0000, 1.899320367844998E+09, 3.767008210478564E+09, 6.121787252336764E+08,
2461141.500000000, A.D. 2026-Apr-11 00:00:00.0000, 1.896390997043716E+09, 3.768464687066975E+09, 6.110279937722948E+08,
2461148.500000000, A.D. 2026-Apr-18 00:00:00.0000, 1.893460465962235E+09, 3.769918723985050E+09, 6.098768782199905E+08,
2461155.500000000, A.D. 2026-Apr-25 00:00:00.0000, 1.890528777904656E+09, 3.771370320731014E+09, 6.087253791742702E+08,
2461162.500000000, A.D. 2026-May-02 00:00:00.0000, 1.887595935977506E+09, 3.772819476911009E+09, 6.075734972301586E+08,
2461169.500000000, A.D. 2026-May-09 00:00:00.0000, 1.884661943086510E+09, 3.774266191933896E+09, 6.064212329540751E+08,
2461176.500000000, A.D. 2026-May-16 00:00:00.0000, 1.881726802440448E+09, 3.775710464657816E+09, 6.052685868084359E+08,
2461183.500000000, A.D. 2026-May-23 00:00:00.0000, 1.878790518614239E+09, 3.777152294010931E+09, 6.041155591058719E+08,
2461190.500000000, A.D. 2026-May-30 00:00:00.0000, 1.875853097092988E+09, 3.778591680905934E+09, 6.029621502097998E+08,
2461197.500000000, A.D. 2026-Jun-06 00:00:00.0000, 1.872914541979815E+09, 3.780028628174787E+09, 6.018083607428572E+08,
2461204.500000000, A.D. 2026-Jun-13 00:00:00.0000, 1.869974855533467E+09, 3.781463138722646E+09, 6.006541914831052E+08,
2461211.500000000, A.D. 2026-Jun-20 00:00:00.0000, 1.867034039034698E+09, 3.782895214827143E+09, 5.994996432328572E+08,
2461218.500000000, A.D. 2026-Jun-27 00:00:00.0000, 1.864092093283072E+09, 3.784324858243162E+09, 5.983447167879097E+08,
2461225.500000000, A.D. 2026-Jul-04 00:00:00.0000, 1.861149018724053E+09, 3.785752070338265E+09, 5.971894129435604E+08,
2461232.500000000, A.D. 2026-Jul-11 00:00:00.0000, 1.858204815460320E+09, 3.787176852126931E+09, 5.960337325030835E+08,
2461239.500000000, A.D. 2026-Jul-18 00:00:00.0000, 1.855259483239995E+09, 3.788599204229358E+09, 5.948776762819858E+08,
2461246.500000000, A.D. 2026-Jul-25 00:00:00.0000, 1.852313021446215E+09, 3.790019126757659E+09, 5.937212451058044E+08,
2461253.500000000, A.D. 2026-Aug-01 00:00:00.0000, 1.849365429136119E+09, 3.791436619081371E+09, 5.925644397928972E+08,
2461260.500000000, A.D. 2026-Aug-08 00:00:00.0000, 1.846416705344090E+09, 3.792851679436502E+09, 5.914072610994530E+08,
2461267.500000000, A.D. 2026-Aug-15 00:00:00.0000, 1.843466850064208E+09, 3.794264304828603E+09, 5.902497096253490E+08,
2461274.500000000, A.D. 2026-Aug-22 00:00:00.0000, 1.840515865150778E+09, 3.795674492451335E+09, 5.890917858504274E+08,
2461281.500000000, A.D. 2026-Aug-29 00:00:00.0000, 1.837563752847709E+09, 3.797082241247928E+09, 5.879334903989134E+08,
2461288.500000000, A.D. 2026-Sep-05 00:00:00.0000, 1.834610514080276E+09, 3.798487550747585E+09, 5.867748241019061E+08,
2461295.500000000, A.D. 2026-Sep-12 00:00:00.0000, 1.831656148964086E+09, 3.799890419672619E+09, 5.856157878367417E+08,
2461302.500000000, A.D. 2026-Sep-19 00:00:00.0000, 1.828700657657421E+09, 3.801290845860483E+09, 5.844563824413083E+08,
2461309.500000000, A.D. 2026-Sep-26 00:00:00.0000, 1.825744040698252E+09, 3.802688826567823E+09, 5.832966087058370E+08,
2461316.500000000, A.D. 2026-Oct-03 00:00:00.0000, 1.822786299074486E+09, 3.804084358705852E+09, 5.821364673825817E+08,
$$EOE